OBJECT_NAME,OBJECT_ID,EPOCH,MEAN_MOTION,ECCENTRICITY,INCLINATION,RA_OF_ASC_NODE,ARG_OF_PERICENTER,MEAN_ANOMALY,EPHEMERIS_TYPE,CLASSIFICATION_TYPE,NORAD_CAT_ID,ELEMENT_SET_NO,REV_AT_EPOCH,BSTAR,MEAN_MOTION_DOT,MEAN_MOTION_DDOT
ONEWEB-0395,2021-132G,2026-07-21T10:10:57.604512,13.11417209,.00019335,87.8887,14.2487,84.8800,275.2549,0,U,50475,999,22020,-.13257835E-2,-.457E-5,0
ONEWEB-0396,2021-132H,2026-07-21T14:45:51.507936,13.18686021,.00017192,87.9203,328.6108,98.2835,261.8492,0,U,50476,999,22617,-.20343305E-4,.5E-7,0
ONEWEB-0397,2021-132J,2026-07-21T15:07:42.073248,13.18686713,.00016459,87.9203,328.6080,101.3405,258.7912,0,U,50477,999,22615,-.16936112E-3,-.54E-6,0
ONEWEB-0398,2021-132K,2026-07-21T00:15:16.252128,13.11416209,.00021105,87.8896,14.3246,87.5422,272.5948,0,U,50478,999,22004,.13223591E-2,.481E-5,0
ONEWEB-0399,2021-132L,2026-07-21T10:54:56.407392,13.11418755,.00014186,87.8893,14.2473,82.8140,277.3149,0,U,50479,999,22009,.10425746E-2,.382E-5,0
ONEWEB-0400,2021-132M,2026-07-21T07:19:05.626272,13.18685846,.00020321,87.9203,328.6624,96.4832,263.6531,0,U,50480,999,22610,.20143551E-3,.92E-6,0
ONEWEB-0401,2021-132N,2026-07-21T13:52:26.428224,13.18688122,.00018887,87.9204,328.6056,105.5871,254.5470,0,U,50481,999,22614,-.61865428E-3,-.231E-5,0
ONEWEB-0402,2021-132P,2026-07-21T07:31:13.618848,13.18684435,.00016964,87.9203,328.6469,112.5405,247.5907,0,U,50482,999,22613,.13445903E-3,.66E-6,0
ONEWEB-0403,2021-132Q,2026-07-21T08:07:39.436896,13.18686404,.0001781,87.9203,328.6663,95.7479,264.3856,0,U,50483,999,22609,.12834546E-3,.64E-6,0
ONEWEB-0404,2021-132R,2026-07-21T10:28:03.736704,13.11417770,.00017091,87.8893,14.2478,81.5435,278.5887,0,U,50484,999,22018,-.10720116E-2,-.367E-5,0
ONEWEB-0405,2021-132S,2026-07-21T13:54:52.330176,13.18685835,.00023325,87.9206,328.6038,94.6252,265.5146,0,U,50485,999,22652,.28059574E-3,.124E-5,0
ONEWEB-0406,2021-132T,2026-07-21T15:31:58.798848,13.18686886,.00015703,87.9201,328.6047,83.7836,276.3475,0,U,50486,999,22616,-.13190621E-3,-.39E-6,0
ONEWEB-0407,2021-132U,2026-07-21T08:05:12.789312,13.18684696,.00020165,87.9206,328.6596,102.7152,257.4205,0,U,50487,999,22606,.65909097E-4,.39E-6,0
ONEWEB-0409,2021-132V,2026-07-21T10:25:37.409664,13.11417938,.00018236,87.8897,14.2378,82.5463,277.5872,0,U,50488,999,22007,-.12463867E-2,-.429E-5,0
ONEWEB-0412,2021-132W,2026-07-21T07:48:13.611456,13.18686717,.00017513,87.9199,328.6696,108.0269,252.1054,0,U,50489,999,22615,.15355029E-3,.73E-6,0
ONEWEB-0413,2021-132X,2026-07-21T07:55:30.467136,13.18684589,.00019195,87.9192,328.6645,108.3273,251.8068,0,U,50490,999,22609,.13543764E-3,.66E-6,0
ONEWEB-0414,2021-132Y,2026-07-21T14:50:42.244800,13.18687057,.00017133,87.9204,328.5928,101.6935,258.4389,0,U,50491,999,22616,-.67673462E-4,-.14E-6,0
ONEWEB-0417,2021-132Z,2026-07-21T07:45:47.839104,13.18684874,.00018011,87.9195,328.6680,91.7515,268.3824,0,U,50492,999,22610,.13706103E-3,.67E-6,0
ONEWEB-0418,2021-132AA,2026-07-21T08:00:10.111968,13.18686298,.00018037,87.9197,328.6675,91.3179,268.8159,0,U,50493,999,22616,.12020681E-3,.6E-6,0
ONEWEB-0419,2021-132AB,2026-07-21T08:27:41.994432,13.18666612,.00020325,87.9202,328.6648,92.5055,267.6309,0,U,50494,999,22608,.25441101E-3,.113E-5,0
ONEWEB-0420,2021-132AC,2026-07-21T07:36:04.892256,13.18684666,.00020637,87.9193,328.6718,103.3367,256.7995,0,U,50495,999,22607,.27935342E-3,.123E-5,0
ONEWEB-0421,2021-132AD,2026-07-21T14:43:26.571936,13.18686453,.00015698,87.9197,328.6112,105.8063,254.3242,0,U,50496,999,22615,.218311E-3,.99E-6,0
ONEWEB-0424,2021-132AE,2026-07-21T08:19:47.653248,13.18687350,.00021483,87.9203,328.6640,91.9617,268.1761,0,U,50497,999,22614,.18891167E-3,.87E-6,0
ONEWEB-0426,2021-132AF,2026-07-21T14:37:20.092512,13.18677890,.00014264,87.9205,328.6027,87.5497,272.5798,0,U,50498,999,22612,.3086246E-2,.123E-4,0
ONEWEB-0427,2021-132AG,2026-07-21T15:34:24.999744,13.18688648,.00017644,87.9202,328.5845,95.1398,264.9936,0,U,50499,999,22615,-.10087522E-2,-.385E-5,0
ONEWEB-0429,2021-132AH,2026-07-21T07:57:55.752192,13.18685025,.00019608,87.9191,328.6690,108.0036,252.1310,0,U,50500,999,22608,-.77540494E-4,-.18E-6,0
ONEWEB-0430,2021-132AJ,2026-07-21T14:57:58.722048,13.18683672,.00024034,87.9194,328.6094,105.4821,254.6577,0,U,50501,999,22616,.23940962E-3,.107E-5,0
ONEWEB-0432,2021-132AK,2026-07-21T14:33:31.501440,13.18686229,.00023409,87.9201,328.5999,95.3313,264.8086,0,U,50502,999,22611,.13572433E-3,.66E-6,0
ONEWEB-0440,2021-132AL,2026-07-21T15:27:07.606656,13.18684907,.00018029,87.9203,328.6043,108.9978,251.1350,0,U,50503,999,22611,-.83705619E-4,-.2E-6,0
ONEWEB-0450,2021-132AM,2026-07-21T08:00:33.691392,13.18687235,.00020382,87.9196,328.6674,102.9320,257.2040,0,U,50504,999,22610,.16731101E-3,.79E-6,0
