{"epoch":1784710044,"count":18256,"objects":[{"id":"50475","name":"ONEWEB-0395","type":"PAYLOAD","l1":"1 50475U 21132G   26202.42427783 -.00000457  00000-0 -13258-2 0  9998","l2":"2 50475  87.8887  14.2487 0001934  84.8800 275.2549 13.11417209220209"},{"id":"50476","name":"ONEWEB-0396","type":"PAYLOAD","l1":"1 50476U 21132H   26202.61517949  .00000005  00000-0 -20343-4 0  9997","l2":"2 50476  87.9203 328.6108 0001719  98.2835 261.8492 13.18686021226170"},{"id":"50477","name":"ONEWEB-0397","type":"PAYLOAD","l1":"1 50477U 21132J   26202.63034807 -.00000054  00000-0 -16936-3 0  9994","l2":"2 50477  87.9203 328.6080 0001646 101.3405 258.7912 13.18686713226156"},{"id":"50478","name":"ONEWEB-0398","type":"PAYLOAD","l1":"1 50478U 21132K   26202.01060477  .00000481  00000-0  13224-2 0  9997","l2":"2 50478  87.8896  14.3246 0002110  87.5422 272.5948 13.11416209220047"},{"id":"50479","name":"ONEWEB-0399","type":"PAYLOAD","l1":"1 50479U 21132L   26202.45481953  .00000382  00000-0  10426-2 0  9993","l2":"2 50479  87.8893  14.2473 0001419  82.8140 277.3149 13.11418755220091"},{"id":"50480","name":"ONEWEB-0400","type":"PAYLOAD","l1":"1 50480U 21132M   26202.30492623  .00000092  00000-0  20144-3 0  9992","l2":"2 50480  87.9203 328.6624 0002032  96.4832 263.6531 13.18685846226105"},{"id":"50481","name":"ONEWEB-0401","type":"PAYLOAD","l1":"1 50481U 21132N   26202.57808366 -.00000231  00000-0 -61865-3 0  9999","l2":"2 50481  87.9204 328.6056 0001889 105.5871 254.5470 13.18688122226145"},{"id":"50482","name":"ONEWEB-0402","type":"PAYLOAD","l1":"1 50482U 21132P   26202.31335207  .00000066  00000-0  13446-3 0  9997","l2":"2 50482  87.9203 328.6469 0001696 112.5405 247.5907 13.18684435226139"},{"id":"50483","name":"ONEWEB-0403","type":"PAYLOAD","l1":"1 50483U 21132Q   26202.33865089  .00000064  00000-0  12835-3 0  9995","l2":"2 50483  87.9203 328.6663 0001781  95.7479 264.3856 13.18686404226097"},{"id":"50484","name":"ONEWEB-0404","type":"PAYLOAD","l1":"1 50484U 21132R   26202.43615436 -.00000367  00000-0 -10720-2 0  9994","l2":"2 50484  87.8893  14.2478 0001709  81.5435 278.5887 13.11417770220185"},{"id":"50485","name":"ONEWEB-0405","type":"PAYLOAD","l1":"1 50485U 21132S   26202.57977234  .00000124  00000-0  28060-3 0  9993","l2":"2 50485  87.9206 328.6038 0002333  94.6252 265.5146 13.18685835226529"},{"id":"50486","name":"ONEWEB-0406","type":"PAYLOAD","l1":"1 50486U 21132T   26202.64720832 -.00000039  00000-0 -13191-3 0  9998","l2":"2 50486  87.9201 328.6047 0001570  83.7836 276.3475 13.18686886226166"},{"id":"50487","name":"ONEWEB-0407","type":"PAYLOAD","l1":"1 50487U 21132U   26202.33695358  .00000039  00000-0  65909-4 0  9992","l2":"2 50487  87.9206 328.6596 0002016 102.7152 257.4205 13.18684696226067"},{"id":"50488","name":"ONEWEB-0409","type":"PAYLOAD","l1":"1 50488U 21132V   26202.43446076 -.00000429  00000-0 -12464-2 0  9996","l2":"2 50488  87.8897  14.2378 0001824  82.5463 277.5872 13.11417938220079"},{"id":"50489","name":"ONEWEB-0412","type":"PAYLOAD","l1":"1 50489U 21132W   26202.32515754  .00000073  00000-0  15355-3 0  9991","l2":"2 50489  87.9199 328.6696 0001751 108.0269 252.1054 13.18686717226154"},{"id":"50490","name":"ONEWEB-0413","type":"PAYLOAD","l1":"1 50490U 21132X   26202.33021374  .00000066  00000-0  13544-3 0  9994","l2":"2 50490  87.9192 328.6645 0001920 108.3273 251.8068 13.18684589226098"},{"id":"50491","name":"ONEWEB-0414","type":"PAYLOAD","l1":"1 50491U 21132Y   26202.61854450 -.00000014  00000-0 -67673-4 0  9993","l2":"2 50491  87.9204 328.5928 0001713 101.6935 258.4389 13.18687057226167"},{"id":"50492","name":"ONEWEB-0417","type":"PAYLOAD","l1":"1 50492U 21132Z   26202.32347036  .00000067  00000-0  13706-3 0  9992","l2":"2 50492  87.9195 328.6680 0001801  91.7515 268.3824 13.18684874226106"},{"id":"50493","name":"ONEWEB-0418","type":"PAYLOAD","l1":"1 50493U 21132AA  26202.33345037  .00000060  00000-0  12021-3 0  9995","l2":"2 50493  87.9197 328.6675 0001804  91.3179 268.8159 13.18686298226162"},{"id":"50494","name":"ONEWEB-0419","type":"PAYLOAD","l1":"1 50494U 21132AB  26202.35256938  .00000113  00000-0  25441-3 0  9998","l2":"2 50494  87.9202 328.6648 0002032  92.5055 267.6309 13.18666612226083"},{"id":"50495","name":"ONEWEB-0420","type":"PAYLOAD","l1":"1 50495U 21132AC  26202.31672329  .00000123  00000-0  27935-3 0  9992","l2":"2 50495  87.9193 328.6718 0002064 103.3367 256.7995 13.18684666226071"},{"id":"50496","name":"ONEWEB-0421","type":"PAYLOAD","l1":"1 50496U 21132AD  26202.61350199  .00000099  00000-0  21831-3 0  9995","l2":"2 50496  87.9197 328.6112 0001570 105.8063 254.3242 13.18686453226159"},{"id":"50497","name":"ONEWEB-0424","type":"PAYLOAD","l1":"1 50497U 21132AE  26202.34707932  .00000087  00000-0  18891-3 0  9996","l2":"2 50497  87.9203 328.6640 0002148  91.9617 268.1761 13.18687350226141"},{"id":"50498","name":"ONEWEB-0426","type":"PAYLOAD","l1":"1 50498U 21132AF  26202.60926033  .00001230  00000-0  30862-2 0  9993","l2":"2 50498  87.9205 328.6027 0001426  87.5497 272.5798 13.18677890226123"},{"id":"50499","name":"ONEWEB-0427","type":"PAYLOAD","l1":"1 50499U 21132AG  26202.64890046 -.00000385  00000-0 -10088-2 0  9992","l2":"2 50499  87.9202 328.5845 0001764  95.1398 264.9936 13.18688648226153"},{"id":"50500","name":"ONEWEB-0429","type":"PAYLOAD","l1":"1 50500U 21132AH  26202.33189528 -.00000018  00000-0 -77540-4 0  9998","l2":"2 50500  87.9191 328.6690 0001961 108.0036 252.1310 13.18685025226087"},{"id":"50501","name":"ONEWEB-0430","type":"PAYLOAD","l1":"1 50501U 21132AJ  26202.62359632  .00000107  00000-0  23941-3 0  9998","l2":"2 50501  87.9194 328.6094 0002403 105.4821 254.6577 13.18683672226161"},{"id":"50502","name":"ONEWEB-0432","type":"PAYLOAD","l1":"1 50502U 21132AK  26202.60661460  .00000066  00000-0  13572-3 0  9995","l2":"2 50502  87.9201 328.5999 0002341  95.3313 264.8086 13.18686229226112"},{"id":"50503","name":"ONEWEB-0440","type":"PAYLOAD","l1":"1 50503U 21132AL  26202.64383804 -.00000020  00000-0 -83706-4 0  9992","l2":"2 50503  87.9203 328.6043 0001803 108.9978 251.1350 13.18684907226110"},{"id":"50504","name":"ONEWEB-0450","type":"PAYLOAD","l1":"1 50504U 21132AM  26202.33372328  .00000079  00000-0  16731-3 0  9993","l2":"2 50504  87.9196 328.6674 0002038 102.9320 257.2040 13.18687235226107"}]}